GLOBALSTAR M001 [-]     
1 25162U 98008A   24078.85262302 -.00000066  00000+0  23225-3 0  9999
2 25162  52.0017 218.4762 0001743  44.4214 121.9299 12.38179269187307
GLOBALSTAR M004 [-]     
1 25163U 98008B   24079.18594425 -.00000071  00000+0  18038-3 0  9993
2 25163  52.0027   2.2084 0003262  10.1940 141.2619 12.63352710204278
GLOBALSTAR M002 [-]     
1 25164U 98008C   24079.00606837 -.00000081  00000+0 -79258-4 0  9990
2 25164  52.0017 301.4887 0001961  49.9838 310.1154 11.61498643131243
GLOBALSTAR M003 [-]     
1 25165U 98008D   24079.16748295  .00000045  00000+0  14310-2 0  9997
2 25165  51.9864 348.7769 0008435  96.6753  51.8660 12.11986457178134
GLOBALSTAR M014 [-]     
1 25306U 98023A   24078.64502257 -.00000061  00000+0  30374-3 0  9997
2 25306  51.9816 235.1908 0000668 171.4461 318.4132 11.65465769138059
GLOBALSTAR M006 [-]     
1 25307U 98023B   24078.87761823 -.00000038  00000+0  77538-3 0  9996
2 25307  51.9916 270.0620 0004028  23.1627  86.3377 11.58157806164076
GLOBALSTAR M015 [-]     
1 25308U 98023C   24078.92709382 -.00000106  00000+0 -73853-3 0  9998
2 25308  51.9859 347.5440 0012625 348.8220  93.0406 11.48852270142127
GLOBALSTAR M008 [-]     
1 25309U 98023D   24078.95760708 -.00000062  00000+0  26482-3 0  9997
2 25309  51.9961  77.8439 0002333 298.9892  77.4946 12.36038386181555
